OBJECT_NAME,OBJECT_ID,EPOCH,MEAN_MOTION,ECCENTRICITY,INCLINATION,RA_OF_ASC_NODE,ARG_OF_PERICENTER,MEAN_ANOMALY,EPHEMERIS_TYPE,CLASSIFICATION_TYPE,NORAD_CAT_ID,ELEMENT_SET_NO,REV_AT_EPOCH,BSTAR,MEAN_MOTION_DOT,MEAN_MOTION_DDOT
BANDWAGON-2 OBJECT D,2024-247D,2026-03-09T12:32:33.669888,15.29076102,.0003488,44.9954,115.6710,351.1453,8.9368,0,U,62380,999,6773,.40119E-3,.11259E-3,0
STARLINK-35562,2025-235F,2026-03-09T11:27:33.813216,15.30214583,.0001349,53.1590,246.6330,86.7091,273.4064,0,U,66063,999,2288,.13487E-2,.39818E-3,0
